[{"OBJECT_NAME":"TIANMU-1 22","OBJECT_ID":"2023-208D","EPOCH":"2026-03-09T22:39:05.738688","MEAN_MOTION":15.29457749,"ECCENTRICITY":0.00031332,"INCLINATION":97.4379,"RA_OF_ASC_NODE":184.9419,"ARG_OF_PERICENTER":351.9312,"MEAN_ANOMALY":8.1877,"EPHEMERIS_TYPE":0,"CLASSIFICATION_TYPE":"U","NORAD_CAT_ID":58663,"ELEMENT_SET_NO":999,"REV_AT_EPOCH":12215,"BSTAR":0.00038239675,"MEAN_MOTION_DOT":0.00010851,"MEAN_MOTION_DDOT":0},{"OBJECT_NAME":"STARLINK-35988","OBJECT_ID":"2025-270AD","EPOCH":"2026-03-09T00:18:26.630208","MEAN_MOTION":15.27595554,"ECCENTRICITY":0.00016125,"INCLINATION":43.0062,"RA_OF_ASC_NODE":59.8859,"ARG_OF_PERICENTER":250.6408,"MEAN_ANOMALY":109.427,"EPHEMERIS_TYPE":0,"CLASSIFICATION_TYPE":"U","NORAD_CAT_ID":66615,"ELEMENT_SET_NO":999,"REV_AT_EPOCH":1744,"BSTAR":0.0015737105,"MEAN_MOTION_DOT":0.00043318,"MEAN_MOTION_DDOT":0}]
